{
 "type": "FeatureCollection",
 "name": "coastline_1632",
 "metadata": {
  "title": "İstanbul kıyı çizgisi — 1632 taslağı",
  "status": "TASLAK — Caner onayı bekliyor",
  "generated_utc": "2026-08-18T21:03:45Z",
  "base_geometry": "Copernicus DEM GLO-30, 0,5 m konturu (modern kıyı)",
  "base_licence": "Produced using Copernicus WorldDEM-30 (c) DLR e.V. 2010-2014 and (c) Airbus Defence and Space GmbH 2014-2018 provided under COPERNICUS by the European Union and ESA; all rights reserved.",
  "corrections_source": "docs/RESEARCH.md §4 (niteliksel; metrik ofset içermez)",
  "corrections_method": "Dolgu alanlarında deniz eşiği 0.5 m → 5.0 m çıkarıldı; kıyı doğal yamacın eteğine çekildi. Alan sınırında 150 m yumuşak geçiş. Sabit metre ofseti KULLANILMADI — eşik araziden türetilir, kayma miktarı ölçülür.",
  "decision": "Caner, 2026-08-18: 'makul bir tahminle geri alabilirsin.' Bkz. docs/feedback/coastline_1632.md",
  "copyright": "Bu çizim bize aittir (kendi türetimimiz) — plan Faz 1 madde 2.",
  "world_origin": {
   "name": "Galata Kulesi tabani",
   "lon": 28.974017,
   "lat": 41.025637,
   "utm_easting": 665958.1142269672,
   "utm_northing": 4543479.981161056
  },
  "crs_note": "GeoJSON WGS84'tür (RFC 7946). Unity için yerel metre dosyası ayrıca üretilir.",
  "warning": "correction_zone geometrileri KABA TASLAKTIR. RESEARCH.md yalnızca 'dolgular yok / kıyı içeride / Langa bostan' der; metrik ofset vermez. Kesinleştirme: dönem haritalarının georeferanslanması (Faz 1 madde 3)."
 },
 "features": [
  {
   "type": "Feature",
   "geometry": {
    "type": "LineString",
    "coordinates": [
     [
      29.0792195,
      40.9551519
     ],
     [
      29.0766088,
      40.9570203
     ],
     [
      29.0748301,
      40.9570523
     ],
     [
      29.071745,
      40.9579848
     ],
     [
      29.0711001,
      40.9587047
     ],
     [
      29.0706255,
      40.960602
     ],
     [
      29.068335,
      40.962768
     ],
     [
      29.0654953,
      40.9630213
     ],
     [
      29.0619146,
      40.9623434
     ],
     [
      29.0605994,
      40.9629741
     ],
     [
      29.0589985,
      40.9630027
     ],
     [
      29.0579731,
      40.9643701
     ],
     [
      29.0555863,
      40.9648849
     ],
     [
      29.054327,
      40.9658855
     ],
     [
      29.0537399,
      40.9670427
     ],
     [
      29.0524784,
      40.9679759
     ],
     [
      29.0480748,
      40.9694708
     ],
     [
      29.0455015,
      40.9697189
     ],
     [
      29.0448167,
      40.9691577
     ],
     [
      29.0443137,
      40.9672778
     ],
     [
      29.0435379,
      40.9666507
     ],
     [
      29.041554,
      40.9658089
     ],
     [
      29.0409314,
      40.96582
     ],
     [
      29.0402758,
      40.9662026
     ],
     [
      29.039885,
      40.9679634
     ],
     [
      29.0378207,
      40.9688431
     ],
     [
      29.0362134,
      40.9686692
     ],
     [
      29.0347819,
      40.9669743
     ],
     [
      29.0338345,
      40.9665525
     ],
     [
      29.0333028,
      40.9666294
     ],
     [
      29.0323493,
      40.9674557
     ],
     [
      29.031557,
      40.9677395
     ],
     [
      29.0313419,
      40.9679794
     ],
     [
      29.031557,
      40.9691898
     ],
     [
      29.0335347,
      40.9712798
     ],
     [
      29.0350427,
      40.9711183
     ],
     [
      29.0362549,
      40.9700176
     ],
     [
      29.0368796,
      40.970074
     ],
     [
      29.0377464,
      40.970767
     ],
     [
      29.0380506,
      40.9719758
     ],
     [
      29.0375667,
      40.9736033
     ],
     [
      29.037091,
      40.9740502
     ],
     [
      29.0362055,
      40.9742008
     ],
     [
      29.0358187,
      40.9746461
     ],
     [
      29.0375648,
      40.9749863
     ],
     [
      29.0392365,
      40.9757999
     ],
     [
      29.03934,
      40.9762703
     ],
     [
      29.0387567,
      40.9775623
     ],
     [
      29.0377968,
      40.9781864
     ],
     [
      29.0379913,
      40.9787226
     ],
     [
      29.0375652,
      40.9793372
     ],
     [
      29.0341702,
      40.9818257
     ],
     [
      29.0341579,
      40.9828715
     ],
     [
      29.0336675,
      40.9828464
     ],
     [
      29.0319585,
      40.9808191
     ],
     [
      29.0295233,
      40.9797827
     ],
     [
      29.0275537,
      40.9794126
     ],
     [
      29.0264116,
      40.9799049
     ],
     [
      29.0251661,
      40.9799268
     ],
     [
      29.0224498,
      40.978423
     ],
     [
      29.021436,
      40.9787443
     ],
     [
      29.0195529,
      40.9812058
     ],
     [
      29.0201669,
      40.9838259
     ],
     [
      29.0198604,
      40.9854502
     ],
     [
      29.0168033,
      40.9902932
     ],
     [
      29.0183075,
      40.9914474
     ],
     [
      29.0203561,
      40.991479
     ],
     [
      29.0225163,
      40.9922505
     ],
     [
      29.0236688,
      40.9935457
     ],
     [
      29.0237039,
      40.9946919
     ],
     [
      29.0220979,
      40.9960355
     ],
     [
      29.0205933,
      40.9963317
     ],
     [
      29.0190703,
      40.9960211
     ],
     [
      29.0180955,
      40.9961731
     ],
     [
      29.0177933,
      40.996482
     ],
     [
      29.0180083,
      40.9976924
     ],
     [
      29.0165055,
      40.9995063
     ],
     [
      29.0151063,
      41.0003403
     ],
     [
      29.0139473,
      41.0002931
     ],
     [
      29.0130718,
      41.0007806
     ],
     [
      29.0120038,
      41.0007993
     ],
     [
      29.0109211,
      41.0017963
     ],
     [
      29.0112501,
      41.0023639
     ],
     [
      29.011962,
      41.0023515
     ],
     [
      29.0127318,
      41.0027765
     ],
     [
      29.0124025,
      41.0036592
     ],
     [
      29.0114875,
      41.004316
     ],
     [
      29.0085649,
      41.0048392
     ],
     [
      29.0070596,
      41.0065856
     ],
     [
      29.0074734,
      41.0070169
     ],
     [
      29.0090816,
      41.0071912
     ],
     [
      29.0102136,
      41.0078123
     ],
     [
      29.0104183,
      41.0086857
     ],
     [
      29.0094597,
      41.009377
     ],
     [
      29.009383,
      41.009783
     ],
     [
      29.0096807,
      41.0107897
     ],
     [
      29.0106967,
      41.0119862
     ],
     [
      29.0109137,
      41.0132641
     ],
     [
      29.0101987,
      41.0161098
     ],
     [
      29.0081116,
      41.0177651
     ],
     [
      29.0081505,
      41.0190461
     ],
     [
      29.0073718,
      41.0198017
     ],
     [
      29.006189,
      41.0219135
     ],
     [
      29.0066812,
      41.0234564
     ],
     [
      29.0082499,
      41.0252504
     ],
     [
      29.009022,
      41.0257429
     ],
     [
      29.0105478,
      41.026121
     ],
     [
      29.0121441,
      41.0258908
     ],
     [
      29.0133946,
      41.0260038
     ],
     [
      29.0145435,
      41.0271643
     ],
     [
      29.0148332,
      41.0279012
     ],
     [
      29.0167128,
      41.0296559
     ],
     [
      29.0215927,
      41.0319314
     ],
     [
      29.0272391,
      41.035947
     ],
     [
      29.0297736,
      41.0372515
     ],
     [
      29.0310513,
      41.0382409
     ],
     [
      29.0350253,
      41.0399921
     ],
     [
      29.0396665,
      41.0431479
     ],
     [
      29.0424541,
      41.0439754
     ],
     [
      29.0439972,
      41.0448925
     ],
     [
      29.051721,
      41.0482966
     ],
     [
      29.0519515,
      41.0499789
     ],
     [
      29.0511877,
      41.0512067
     ],
     [
      29.0516005,
      41.0530207
     ],
     [
      29.0514601,
      41.0542374
     ],
     [
      29.0524346,
      41.0569183
     ],
     [
      29.0532697,
      41.0579827
     ],
     [
      29.0522827,
      41.0606311
     ],
     [
      29.0523162,
      41.0617098
     ],
     [
      29.0538682,
      41.0628963
     ],
     [
      29.0548073,
      41.0644311
     ],
     [
      29.0570124,
      41.0665503
     ],
     [
      29.0569099,
      41.0689806
     ],
     [
      29.0553202,
      41.0723143
     ],
     [
      29.0553706,
      41.0739323
     ],
     [
      29.0561479,
      41.0745593
     ],
     [
      29.0582881,
      41.0745885
     ],
     [
      29.059548,
      41.0749708
     ],
     [
      29.0615438,
      41.0760818
     ],
     [
      29.063701,
      41.0766503
     ],
     [
      29.0644763,
      41.0772098
     ],
     [
      29.0641537,
      41.0782948
     ],
     [
      29.0647114,
      41.0790269
     ],
     [
      29.0650252,
      41.0805053
     ],
     [
      29.0659436,
      41.0813657
     ],
     [
      29.065882,
      41.0822437
     ],
     [
      29.0666772,
      41.0848603
     ],
     [
      29.0659323,
      41.0866949
     ],
     [
      29.065877,
      41.0877752
     ]
    ]
   },
   "properties": {
    "layer": "modern_shoreline",
    "tier": "Reconstruction",
    "length_m": 27859.9,
    "vertices": 149,
    "note": "Copernicus GLO-30 DEM'in 0,5 m konturu. BUGUNKU kiyi — kiyas icin."
   }
  },
  {
   "type": "Feature",
   "geometry": {
    "type": "LineString",
    "coordinates": [
     [
      29.0569662,
      41.0879347
     ],
     [
      29.056734,
      41.0833518
     ],
     [
      29.055606,
      41.0814832
     ],
     [
      29.0529324,
      41.0800806
     ],
     [
      29.0462889,
      41.0785799
     ],
     [
      29.0442519,
      41.0775705
     ],
     [
      29.0443945,
      41.0764212
     ],
     [
      29.0440792,
      41.0748753
     ],
     [
      29.045048,
      41.0716202
     ],
     [
      29.0458184,
      41.0705947
     ],
     [
      29.0457264,
      41.0676282
     ],
     [
      29.0441393,
      41.0667458
     ],
     [
      29.042888,
      41.0666331
     ],
     [
      29.04139,
      41.0657489
     ],
     [
      29.041106,
      41.0652143
     ],
     [
      29.0412571,
      41.0643347
     ],
     [
      29.0403121,
      41.0625976
     ],
     [
      29.037306,
      41.0604922
     ],
     [
      29.0361623,
      41.058084
     ],
     [
      29.0358264,
      41.0558639
     ],
     [
      29.0348526,
      41.0531828
     ],
     [
      29.0328785,
      41.0498449
     ],
     [
      29.0320169,
      41.0493541
     ],
     [
      29.0303186,
      41.0491817
     ],
     [
      29.0285043,
      41.0481344
     ],
     [
      29.0271312,
      41.0469443
     ],
     [
      29.0254412,
      41.0470415
     ],
     [
      29.0234717,
      41.0467388
     ],
     [
      29.0156936,
      41.0429627
     ],
     [
      29.0099369,
      41.0411745
     ],
     [
      29.0061784,
      41.0406329
     ],
     [
      29.0044538,
      41.0395836
     ],
     [
      28.9968094,
      41.0372205
     ],
     [
      28.9953977,
      41.0361994
     ],
     [
      28.9931651,
      41.0330675
     ],
     [
      28.9906171,
      41.0312903
     ],
     [
      28.9889435,
      41.0289582
     ],
     [
      28.9877516,
      41.027832
     ],
     [
      28.983819,
      41.0259098
     ],
     [
      28.9763794,
      41.0213831
     ],
     [
      28.9716672,
      41.0216662
     ],
     [
      28.9699069,
      41.0223709
     ],
     [
      28.9671758,
      41.0248797
     ],
     [
      28.967212,
      41.0260933
     ],
     [
      28.9659307,
      41.0279365
     ],
     [
      28.9659487,
      41.0285434
     ],
     [
      28.9669482,
      41.0292009
     ],
     [
      28.966357,
      41.0302903
     ],
     [
      28.9634094,
      41.031521
     ],
     [
      28.9603511,
      41.0335294
     ],
     [
      28.9577709,
      41.0336407
     ],
     [
      28.9564273,
      41.0333937
     ],
     [
      28.9547476,
      41.0338269
     ],
     [
      28.9530186,
      41.0356102
     ],
     [
      28.9522192,
      41.0356912
     ],
     [
      28.9518274,
      41.0360014
     ],
     [
      28.9493685,
      41.0402253
     ],
     [
      28.9471288,
      41.0428266
     ],
     [
      28.9462976,
      41.0433465
     ],
     [
      28.945322,
      41.0434979
     ],
     [
      28.942793,
      41.0453619
     ],
     [
      28.9418154,
      41.0454459
     ],
     [
      28.9403014,
      41.0469892
     ],
     [
      28.9391239,
      41.04937
     ],
     [
      28.9392605,
      41.0509866
     ],
     [
      28.9401927,
      41.0523875
     ],
     [
      28.943138,
      41.0540581
     ],
     [
      28.9474551,
      41.0554018
     ],
     [
      28.9485262,
      41.0569689
     ],
     [
      28.9481544,
      41.0594711
     ],
     [
      28.9473293,
      41.0617111
     ],
     [
      28.9475473,
      41.0630565
     ],
     [
      28.9473335,
      41.0633637
     ],
     [
      28.9460944,
      41.0636545
     ],
     [
      28.9449661,
      41.0646854
     ],
     [
      28.9444336,
      41.0647618
     ],
     [
      28.9440158,
      41.0641955
     ],
     [
      28.9450431,
      41.0627616
     ],
     [
      28.9451004,
      41.0616813
     ],
     [
      28.9458762,
      41.0607912
     ],
     [
      28.9471149,
      41.0574649
     ],
     [
      28.9463389,
      41.0568372
     ],
     [
      28.9445376,
      41.0561931
     ],
     [
      28.9432015,
      41.0562156
     ],
     [
      28.9419367,
      41.0556298
     ],
     [
      28.9400563,
      41.0553242
     ],
     [
      28.9387044,
      41.0548073
     ],
     [
      28.9362837,
      41.0527906
     ],
     [
      28.9355277,
      41.0513193
     ],
     [
      28.9354782,
      41.0496337
     ],
     [
      28.9358998,
      41.0488171
     ],
     [
      28.9378968,
      41.0470296
     ],
     [
      28.937877,
      41.0463554
     ],
     [
      28.9383065,
      41.0458085
     ],
     [
      28.9383461,
      41.0441214
     ],
     [
      28.9399352,
      41.0421047
     ],
     [
      28.9409207,
      41.0422905
     ],
     [
      28.9424939,
      41.0412521
     ],
     [
      28.9438237,
      41.0410273
     ],
     [
      28.9447459,
      41.0405733
     ],
     [
      28.9455907,
      41.0390075
     ],
     [
      28.9466275,
      41.0379107
     ],
     [
      28.9468628,
      41.0368274
     ],
     [
      28.9490452,
      41.0353064
     ],
     [
      28.9486532,
      41.0340988
     ],
     [
      28.9497038,
      41.0334739
     ],
     [
      28.9498461,
      41.0322573
     ],
     [
      28.9508431,
      41.0313298
     ],
     [
      28.9527365,
      41.0305894
     ],
     [
      28.9528807,
      41.0294402
     ],
     [
      28.9539787,
      41.0289156
     ],
     [
      28.9570809,
      41.0283908
     ],
     [
      28.9594703,
      41.0263602
     ],
     [
      28.9609989,
      41.0238383
     ],
     [
      28.9622807,
      41.0235129
     ],
     [
      28.9634536,
      41.0225148
     ],
     [
      28.9637776,
      41.0214299
     ],
     [
      28.9650554,
      41.0209697
     ],
     [
      28.9664417,
      41.0196643
     ],
     [
      28.9699135,
      41.019605
     ],
     [
      28.9716557,
      41.0182935
     ],
     [
      28.9725499,
      41.0184132
     ],
     [
      28.9741422,
      41.0180486
     ],
     [
      28.9752793,
      41.0173545
     ],
     [
      28.9772215,
      41.0167816
     ],
     [
      28.9811383,
      41.0167143
     ],
     [
      28.9832949,
      41.0173518
     ],
     [
      28.9854394,
      41.0175847
     ],
     [
      28.9864146,
      41.0174329
     ],
     [
      28.9871499,
      41.016712
     ],
     [
      28.9878902,
      41.0146755
     ],
     [
      28.9881005,
      41.012783
     ],
     [
      28.9880255,
      41.0102884
     ],
     [
      28.9863059,
      41.0064056
     ],
     [
      28.981513,
      41.0024744
     ],
     [
      28.9799779,
      41.0017588
     ],
     [
      28.9785458,
      41.0015135
     ],
     [
      28.9777247,
      41.000853
     ],
     [
      28.9728259,
      41.0008021
     ],
     [
      28.9684952,
      41.001888
     ],
     [
      28.9636044,
      41.0021064
     ],
     [
      28.9613514,
      41.0012004
     ],
     [
      28.9593105,
      41.0014375
     ],
     [
      28.9583236,
      41.0011844
     ],
     [
      28.958033,
      41.0018976
     ],
     [
      28.9572855,
      41.0022139
     ],
     [
      28.9561166,
      41.001829
     ],
     [
      28.9547896,
      41.0021214
     ],
     [
      28.9543247,
      41.0014547
     ],
     [
      28.9530906,
      41.0018803
     ],
     [
      28.9526812,
      41.0015837
     ],
     [
      28.9526078,
      41.0006068
     ],
     [
      28.9481679,
      41.0010193
     ],
     [
      28.9440404,
      40.9999422
     ],
     [
      28.9430614,
      40.9999587
     ],
     [
      28.9418353,
      41.000654
     ],
     [
      28.9388291,
      41.0013791
     ],
     [
      28.9371263,
      41.001003
     ],
     [
      28.9347255,
      40.999593
     ],
     [
      28.9333948,
      40.9967147
     ],
     [
      28.9323765,
      40.9953826
     ],
     [
      28.929104,
      40.9930765
     ],
     [
      28.926609,
      40.9899477
     ],
     [
      28.9242801,
      40.9879291
     ],
     [
      28.9234715,
      40.9876728
     ],
     [
      28.9212548,
      40.9879796
     ],
     [
      28.9172448,
      40.987844
     ],
     [
      28.9122943,
      40.98597
     ],
     [
      28.9087133,
      40.9821843
     ],
     [
      28.9075488,
      40.9819337
     ],
     [
      28.9015101,
      40.9793352
     ],
     [
      28.8993748,
      40.9793704
     ],
     [
      28.8976979,
      40.9798703
     ]
    ]
   },
   "properties": {
    "layer": "modern_shoreline",
    "tier": "Reconstruction",
    "length_m": 40012.9,
    "vertices": 173,
    "note": "Copernicus GLO-30 DEM'in 0,5 m konturu. BUGUNKU kiyi — kiyas icin."
   }
  },
  {
   "type": "Feature",
   "geometry": {
    "type": "LineString",
    "coordinates": [
     [
      29.0792195,
      40.9551519
     ],
     [
      29.0766088,
      40.9570203
     ],
     [
      29.0748301,
      40.9570523
     ],
     [
      29.071745,
      40.9579848
     ],
     [
      29.0711001,
      40.9587047
     ],
     [
      29.0706255,
      40.960602
     ],
     [
      29.068335,
      40.962768
     ],
     [
      29.0654953,
      40.9630213
     ],
     [
      29.0619146,
      40.9623434
     ],
     [
      29.0605994,
      40.9629741
     ],
     [
      29.0589985,
      40.9630027
     ],
     [
      29.0579731,
      40.9643701
     ],
     [
      29.0555863,
      40.9648849
     ],
     [
      29.054327,
      40.9658855
     ],
     [
      29.0537399,
      40.9670427
     ],
     [
      29.0524784,
      40.9679759
     ],
     [
      29.0480748,
      40.9694708
     ],
     [
      29.0455015,
      40.9697189
     ],
     [
      29.0448167,
      40.9691577
     ],
     [
      29.0443137,
      40.9672778
     ],
     [
      29.0435379,
      40.9666507
     ],
     [
      29.041554,
      40.9658089
     ],
     [
      29.0409314,
      40.96582
     ],
     [
      29.0402758,
      40.9662026
     ],
     [
      29.039885,
      40.9679634
     ],
     [
      29.0378207,
      40.9688431
     ],
     [
      29.0362134,
      40.9686692
     ],
     [
      29.0347819,
      40.9669743
     ],
     [
      29.0338345,
      40.9665525
     ],
     [
      29.0333028,
      40.9666294
     ],
     [
      29.0323493,
      40.9674557
     ],
     [
      29.031557,
      40.9677395
     ],
     [
      29.0313419,
      40.9679794
     ],
     [
      29.031557,
      40.9691898
     ],
     [
      29.0335347,
      40.9712798
     ],
     [
      29.0350427,
      40.9711183
     ],
     [
      29.0362549,
      40.9700176
     ],
     [
      29.0368796,
      40.970074
     ],
     [
      29.0377464,
      40.970767
     ],
     [
      29.0380506,
      40.9719758
     ],
     [
      29.0375667,
      40.9736033
     ],
     [
      29.037091,
      40.9740502
     ],
     [
      29.0362055,
      40.9742008
     ],
     [
      29.0358187,
      40.9746461
     ],
     [
      29.0375648,
      40.9749863
     ],
     [
      29.0392365,
      40.9757999
     ],
     [
      29.03934,
      40.9762703
     ],
     [
      29.0387567,
      40.9775623
     ],
     [
      29.0377968,
      40.9781864
     ],
     [
      29.0379913,
      40.9787226
     ],
     [
      29.0375652,
      40.9793372
     ],
     [
      29.0341702,
      40.9818257
     ],
     [
      29.0341579,
      40.9828715
     ],
     [
      29.0336675,
      40.9828464
     ],
     [
      29.0319585,
      40.9808191
     ],
     [
      29.0295233,
      40.9797827
     ],
     [
      29.0275537,
      40.9794126
     ],
     [
      29.0264116,
      40.9799049
     ],
     [
      29.0251661,
      40.9799268
     ],
     [
      29.0224498,
      40.978423
     ],
     [
      29.021436,
      40.9787443
     ],
     [
      29.0195529,
      40.9812058
     ],
     [
      29.0201669,
      40.9838259
     ],
     [
      29.0198604,
      40.9854502
     ],
     [
      29.0168033,
      40.9902932
     ],
     [
      29.0183075,
      40.9914474
     ],
     [
      29.0203561,
      40.991479
     ],
     [
      29.0225163,
      40.9922505
     ],
     [
      29.0236688,
      40.9935457
     ],
     [
      29.0237039,
      40.9946919
     ],
     [
      29.0220979,
      40.9960355
     ],
     [
      29.0205933,
      40.9963317
     ],
     [
      29.0190703,
      40.9960211
     ],
     [
      29.0180955,
      40.9961731
     ],
     [
      29.0177933,
      40.996482
     ],
     [
      29.0180083,
      40.9976924
     ],
     [
      29.0165055,
      40.9995063
     ],
     [
      29.0151063,
      41.0003403
     ],
     [
      29.0139473,
      41.0002931
     ],
     [
      29.0130718,
      41.0007806
     ],
     [
      29.0120038,
      41.0007993
     ],
     [
      29.0109211,
      41.0017963
     ],
     [
      29.0112501,
      41.0023639
     ],
     [
      29.011962,
      41.0023515
     ],
     [
      29.0127318,
      41.0027765
     ],
     [
      29.0124025,
      41.0036592
     ],
     [
      29.0114875,
      41.004316
     ],
     [
      29.0085649,
      41.0048392
     ],
     [
      29.0070596,
      41.0065856
     ],
     [
      29.0074734,
      41.0070169
     ],
     [
      29.0090816,
      41.0071912
     ],
     [
      29.0102136,
      41.0078123
     ],
     [
      29.0104183,
      41.0086857
     ],
     [
      29.0094597,
      41.009377
     ],
     [
      29.009383,
      41.009783
     ],
     [
      29.0096807,
      41.0107897
     ],
     [
      29.0106967,
      41.0119862
     ],
     [
      29.0109137,
      41.0132641
     ],
     [
      29.0101987,
      41.0161098
     ],
     [
      29.0081116,
      41.0177651
     ],
     [
      29.0081505,
      41.0190461
     ],
     [
      29.0073718,
      41.0198017
     ],
     [
      29.006189,
      41.0219135
     ],
     [
      29.0066812,
      41.0234564
     ],
     [
      29.0082499,
      41.0252504
     ],
     [
      29.009022,
      41.0257429
     ],
     [
      29.0105478,
      41.026121
     ],
     [
      29.0121441,
      41.0258908
     ],
     [
      29.0133946,
      41.0260038
     ],
     [
      29.0145435,
      41.0271643
     ],
     [
      29.0148332,
      41.0279012
     ],
     [
      29.0167128,
      41.0296559
     ],
     [
      29.0215927,
      41.0319314
     ],
     [
      29.0272391,
      41.035947
     ],
     [
      29.0297736,
      41.0372515
     ],
     [
      29.0310513,
      41.0382409
     ],
     [
      29.0350253,
      41.0399921
     ],
     [
      29.0396665,
      41.0431479
     ],
     [
      29.0424541,
      41.0439754
     ],
     [
      29.0439972,
      41.0448925
     ],
     [
      29.051721,
      41.0482966
     ],
     [
      29.0519515,
      41.0499789
     ],
     [
      29.0511877,
      41.0512067
     ],
     [
      29.0516005,
      41.0530207
     ],
     [
      29.0514601,
      41.0542374
     ],
     [
      29.0524346,
      41.0569183
     ],
     [
      29.0532697,
      41.0579827
     ],
     [
      29.0522827,
      41.0606311
     ],
     [
      29.0523162,
      41.0617098
     ],
     [
      29.0538682,
      41.0628963
     ],
     [
      29.0548073,
      41.0644311
     ],
     [
      29.0570124,
      41.0665503
     ],
     [
      29.0569099,
      41.0689806
     ],
     [
      29.0553202,
      41.0723143
     ],
     [
      29.0553706,
      41.0739323
     ],
     [
      29.0561479,
      41.0745593
     ],
     [
      29.0582881,
      41.0745885
     ],
     [
      29.059548,
      41.0749708
     ],
     [
      29.0615438,
      41.0760818
     ],
     [
      29.063701,
      41.0766503
     ],
     [
      29.0644763,
      41.0772098
     ],
     [
      29.0641537,
      41.0782948
     ],
     [
      29.0647114,
      41.0790269
     ],
     [
      29.0650252,
      41.0805053
     ],
     [
      29.0659436,
      41.0813657
     ],
     [
      29.065882,
      41.0822437
     ],
     [
      29.0666772,
      41.0848603
     ],
     [
      29.0659323,
      41.0866949
     ],
     [
      29.065877,
      41.0877752
     ]
    ]
   },
   "properties": {
    "layer": "shoreline_1632",
    "tier": "Reconstruction",
    "length_m": 27859.9,
    "vertices": 149,
    "note": "1632 taslagi: dolgu alanlarinda deniz esigi 5.0 m'ye cikarilarak kiyi dogal yamacin etegine cekildi. T2 — REKONSTRUKSIYON."
   }
  },
  {
   "type": "Feature",
   "geometry": {
    "type": "LineString",
    "coordinates": [
     [
      29.0569662,
      41.0879347
     ],
     [
      29.056734,
      41.0833518
     ],
     [
      29.055606,
      41.0814832
     ],
     [
      29.0529324,
      41.0800806
     ],
     [
      29.0462889,
      41.0785799
     ],
     [
      29.0442519,
      41.0775705
     ],
     [
      29.0443945,
      41.0764212
     ],
     [
      29.0440792,
      41.0748753
     ],
     [
      29.045048,
      41.0716202
     ],
     [
      29.0458184,
      41.0705947
     ],
     [
      29.0457264,
      41.0676282
     ],
     [
      29.0441393,
      41.0667458
     ],
     [
      29.042888,
      41.0666331
     ],
     [
      29.04139,
      41.0657489
     ],
     [
      29.041106,
      41.0652143
     ],
     [
      29.0412571,
      41.0643347
     ],
     [
      29.0403121,
      41.0625976
     ],
     [
      29.037306,
      41.0604922
     ],
     [
      29.0361623,
      41.058084
     ],
     [
      29.0358264,
      41.0558639
     ],
     [
      29.0348526,
      41.0531828
     ],
     [
      29.0328785,
      41.0498449
     ],
     [
      29.0320169,
      41.0493541
     ],
     [
      29.0303186,
      41.0491817
     ],
     [
      29.0285043,
      41.0481344
     ],
     [
      29.0271312,
      41.0469443
     ],
     [
      29.0254412,
      41.0470415
     ],
     [
      29.0234717,
      41.0467388
     ],
     [
      29.0156936,
      41.0429627
     ],
     [
      29.0099369,
      41.0411745
     ],
     [
      29.0061784,
      41.0406329
     ],
     [
      29.0044538,
      41.0395836
     ],
     [
      28.9968094,
      41.0372205
     ],
     [
      28.9953977,
      41.0361994
     ],
     [
      28.9931651,
      41.0330675
     ],
     [
      28.9906171,
      41.0312903
     ],
     [
      28.9889435,
      41.0289582
     ],
     [
      28.9877516,
      41.027832
     ],
     [
      28.9854478,
      41.0267587
     ],
     [
      28.9841164,
      41.0269165
     ],
     [
      28.9840213,
      41.0267158
     ],
     [
      28.983129,
      41.0266637
     ],
     [
      28.982266,
      41.0261051
     ],
     [
      28.9824239,
      41.0254279
     ],
     [
      28.9812857,
      41.0246042
     ],
     [
      28.9761204,
      41.0216574
     ],
     [
      28.9756773,
      41.0217324
     ],
     [
      28.9749003,
      41.0225552
     ],
     [
      28.9735468,
      41.0219713
     ],
     [
      28.9714143,
      41.0221427
     ],
     [
      28.970445,
      41.0224966
     ],
     [
      28.9692215,
      41.0247773
     ],
     [
      28.9680166,
      41.0246967
     ],
     [
      28.967451,
      41.0251449
     ],
     [
      28.967208,
      41.0259585
     ],
     [
      28.9677836,
      41.0258475
     ],
     [
      28.9682013,
      41.0264137
     ],
     [
      28.9676277,
      41.0265922
     ],
     [
      28.9671685,
      41.0261278
     ],
     [
      28.9665198,
      41.0267797
     ],
     [
      28.9666229,
      41.0272502
     ],
     [
      28.9659307,
      41.0279365
     ],
     [
      28.9659487,
      41.0285434
     ],
     [
      28.9669482,
      41.0292009
     ],
     [
      28.966357,
      41.0302903
     ],
     [
      28.9634094,
      41.031521
     ],
     [
      28.9603511,
      41.0335294
     ],
     [
      28.9577709,
      41.0336407
     ],
     [
      28.9564273,
      41.0333937
     ],
     [
      28.9547476,
      41.0338269
     ],
     [
      28.9530186,
      41.0356102
     ],
     [
      28.9522192,
      41.0356912
     ],
     [
      28.9518274,
      41.0360014
     ],
     [
      28.9493685,
      41.0402253
     ],
     [
      28.9471288,
      41.0428266
     ],
     [
      28.9462976,
      41.0433465
     ],
     [
      28.945322,
      41.0434979
     ],
     [
      28.942793,
      41.0453619
     ],
     [
      28.9418154,
      41.0454459
     ],
     [
      28.9403014,
      41.0469892
     ],
     [
      28.9391239,
      41.04937
     ],
     [
      28.9392605,
      41.0509866
     ],
     [
      28.9401927,
      41.0523875
     ],
     [
      28.943138,
      41.0540581
     ],
     [
      28.9474551,
      41.0554018
     ],
     [
      28.9485262,
      41.0569689
     ],
     [
      28.9481544,
      41.0594711
     ],
     [
      28.9473293,
      41.0617111
     ],
     [
      28.9475473,
      41.0630565
     ],
     [
      28.9473335,
      41.0633637
     ],
     [
      28.9460944,
      41.0636545
     ],
     [
      28.9449661,
      41.0646854
     ],
     [
      28.9444336,
      41.0647618
     ],
     [
      28.9440158,
      41.0641955
     ],
     [
      28.9450431,
      41.0627616
     ],
     [
      28.9451004,
      41.0616813
     ],
     [
      28.9458762,
      41.0607912
     ],
     [
      28.9471149,
      41.0574649
     ],
     [
      28.9463389,
      41.0568372
     ],
     [
      28.9445376,
      41.0561931
     ],
     [
      28.9432015,
      41.0562156
     ],
     [
      28.9419367,
      41.0556298
     ],
     [
      28.9400563,
      41.0553242
     ],
     [
      28.9387044,
      41.0548073
     ],
     [
      28.9362837,
      41.0527906
     ],
     [
      28.9355277,
      41.0513193
     ],
     [
      28.9354782,
      41.0496337
     ],
     [
      28.9358998,
      41.0488171
     ],
     [
      28.9378968,
      41.0470296
     ],
     [
      28.937877,
      41.0463554
     ],
     [
      28.9383065,
      41.0458085
     ],
     [
      28.9383461,
      41.0441214
     ],
     [
      28.9399352,
      41.0421047
     ],
     [
      28.9409207,
      41.0422905
     ],
     [
      28.9424939,
      41.0412521
     ],
     [
      28.9438237,
      41.0410273
     ],
     [
      28.9447459,
      41.0405733
     ],
     [
      28.9455907,
      41.0390075
     ],
     [
      28.9466275,
      41.0379107
     ],
     [
      28.9468628,
      41.0368274
     ],
     [
      28.9489601,
      41.0354428
     ],
     [
      28.9490293,
      41.034767
     ],
     [
      28.9486532,
      41.0340988
     ],
     [
      28.9497038,
      41.0334739
     ],
     [
      28.9496759,
      41.03253
     ],
     [
      28.9502773,
      41.0317778
     ],
     [
      28.9527365,
      41.0305894
     ],
     [
      28.9527957,
      41.0295765
     ],
     [
      28.9531853,
      41.0291989
     ],
     [
      28.9558364,
      41.0284794
     ],
     [
      28.9569048,
      41.0284612
     ],
     [
      28.9576466,
      41.0279427
     ],
     [
      28.9596424,
      41.0261549
     ],
     [
      28.9596004,
      41.024739
     ],
     [
      28.9609789,
      41.023164
     ],
     [
      28.9609648,
      41.0226921
     ],
     [
      28.9658815,
      41.018797
     ],
     [
      28.9665936,
      41.0187848
     ],
     [
      28.9676438,
      41.0181598
     ],
     [
      28.9688921,
      41.0182059
     ],
     [
      28.9707313,
      41.0171626
     ],
     [
      28.9721596,
      41.0172731
     ],
     [
      28.974197,
      41.0169009
     ],
     [
      28.9769263,
      41.0158422
     ],
     [
      28.9784315,
      41.0155466
     ],
     [
      28.981021,
      41.0157719
     ],
     [
      28.981988,
      41.0153505
     ],
     [
      28.9820396,
      41.0155858
     ],
     [
      28.9815136,
      41.0158646
     ],
     [
      28.9816602,
      41.0163006
     ],
     [
      28.9833576,
      41.0164737
     ],
     [
      28.9851602,
      41.0171847
     ],
     [
      28.9860484,
      41.017102
     ],
     [
      28.9867857,
      41.0164484
     ],
     [
      28.9873399,
      41.0141453
     ],
     [
      28.9881005,
      41.012783
     ],
     [
      28.9880579,
      41.0113672
     ],
     [
      28.9859559,
      41.006614
     ],
     [
      28.984541,
      41.0054579
     ],
     [
      28.9828672,
      41.004576
     ],
     [
      28.9813512,
      41.0030168
     ],
     [
      28.979994,
      41.0022981
     ],
     [
      28.9781109,
      41.0018583
     ],
     [
      28.9729552,
      41.002149
     ],
     [
      28.9707121,
      41.0015803
     ],
     [
      28.9683474,
      41.0029024
     ],
     [
      28.9670994,
      41.0028563
     ],
     [
      28.9662254,
      41.0034108
     ],
     [
      28.9651434,
      41.0029571
     ],
     [
      28.9626454,
      41.0027973
     ],
     [
      28.9623189,
      41.0022969
     ],
     [
      28.9612844,
      41.0019435
     ],
     [
      28.9606415,
      41.0012799
     ],
     [
      28.9593105,
      41.0014375
     ],
     [
      28.9583236,
      41.0011844
     ],
     [
      28.9575525,
      41.0022094
     ],
     [
      28.9561166,
      41.001829
     ],
     [
      28.9547896,
      41.0021214
     ],
     [
      28.9543247,
      41.0014547
     ],
     [
      28.9530906,
      41.0018803
     ],
     [
      28.9526812,
      41.0015837
     ],
     [
      28.9526078,
      41.0006068
     ],
     [
      28.9481679,
      41.0010193
     ],
     [
      28.9440404,
      40.9999422
     ],
     [
      28.9428043,
      41.0003003
     ],
     [
      28.9420271,
      41.0011229
     ],
     [
      28.9415821,
      41.0011304
     ],
     [
      28.9411035,
      41.0015095
     ],
     [
      28.9414714,
      41.001908
     ],
     [
      28.9409948,
      41.0023546
     ],
     [
      28.9401799,
      41.0018961
     ],
     [
      28.9387638,
      41.0021897
     ],
     [
      28.9346127,
      41.0003032
     ],
     [
      28.9332897,
      40.9992124
     ],
     [
      28.9332385,
      40.9974594
     ],
     [
      28.9327659,
      40.9965229
     ],
     [
      28.9299324,
      40.994007
     ],
     [
      28.926609,
      40.9899477
     ],
     [
      28.9242801,
      40.9879291
     ],
     [
      28.9234715,
      40.9876728
     ],
     [
      28.9212548,
      40.9879796
     ],
     [
      28.9172448,
      40.987844
     ],
     [
      28.9122943,
      40.98597
     ],
     [
      28.9087133,
      40.9821843
     ],
     [
      28.9075488,
      40.9819337
     ],
     [
      28.9015101,
      40.9793352
     ],
     [
      28.8993748,
      40.9793704
     ],
     [
      28.8976979,
      40.9798703
     ]
    ]
   },
   "properties": {
    "layer": "shoreline_1632",
    "tier": "Reconstruction",
    "length_m": 41072.8,
    "vertices": 208,
    "note": "1632 taslagi: dolgu alanlarinda deniz esigi 5.0 m'ye cikarilarak kiyi dogal yamacin etegine cekildi. T2 — REKONSTRUKSIYON."
   }
  },
  {
   "type": "Feature",
   "geometry": {
    "type": "Polygon",
    "coordinates": [
     [
      [
       28.968,
       41.0145
      ],
      [
       28.987,
       41.0145
      ],
      [
       28.987,
       41.02
      ],
      [
       28.968,
       41.02
      ],
      [
       28.968,
       41.0145
      ]
     ]
    ]
   },
   "properties": {
    "layer": "correction_zone",
    "id": "CZ_Eminonu_Sirkeci_dolgu",
    "name": "Eminönü–Sirkeci dolgusu",
    "action": "remove_fill",
    "tier": "Reconstruction",
    "status": "draft",
    "sea_threshold_m": 5.0,
    "measured_shift_m": 97.5,
    "measured_area_ha": 18.6,
    "research_note": "RESEARCH.md §4: 'Eminönü–Sirkeci dolguları YOK'.",
    "design_note": "1632'de Haliç kıyısı burada bugünkünden içeridedir. Yeni Cami (o tarihte 'Zulmiyye' harabesi) denize YAKINDIR — RESEARCH.md §3.",
    "confidence": "kaba taslak; metrik ofset kaynaklı değil"
   }
  },
  {
   "type": "Feature",
   "geometry": {
    "type": "Polygon",
    "coordinates": [
     [
      [
       28.952,
       41.018
      ],
      [
       28.969,
       41.018
      ],
      [
       28.969,
       41.0245
      ],
      [
       28.952,
       41.0245
      ],
      [
       28.952,
       41.018
      ]
     ]
    ]
   },
   "properties": {
    "layer": "correction_zone",
    "id": "CZ_Unkapani_dolgu",
    "name": "Unkapanı kıyısı",
    "action": "remove_fill",
    "tier": "Reconstruction",
    "status": "draft",
    "sea_threshold_m": 5.0,
    "measured_shift_m": 98.4,
    "measured_area_ha": 12.7,
    "research_note": "RESEARCH.md §4: 'Haliç ... kıyısı bugünkünden içeride'.",
    "design_note": "Unkapanı ve Balıkpazarı iskeleleri 1632'de faal (RESEARCH.md §3).",
    "confidence": "kaba taslak; metrik ofset kaynaklı değil"
   }
  },
  {
   "type": "Feature",
   "geometry": {
    "type": "Polygon",
    "coordinates": [
     [
      [
       28.944,
       40.9985
      ],
      [
       28.9605,
       40.9985
      ],
      [
       28.9605,
       41.0055
      ],
      [
       28.944,
       41.0055
      ],
      [
       28.944,
       40.9985
      ]
     ]
    ]
   },
   "properties": {
    "layer": "correction_zone",
    "id": "CZ_Langa_Vlanga_bostan",
    "name": "Langa / Vlanga bostanları",
    "action": "convert_to_gardens",
    "tier": "Reconstruction",
    "status": "draft",
    "sea_threshold_m": null,
    "measured_shift_m": 0.0,
    "measured_area_ha": 0.0,
    "research_note": "RESEARCH.md §4: 'Langa/Vlanga bostanları (eski Theodosius limanı dolmuş alanı) yeşil/bostan alanı.'",
    "design_note": "Su değil, KARA — ama yapılaşmamış bostan. Marmara kıyı kapısı 'Langa' burada (RESEARCH.md §3, Eremya Çelebi kapı listesi). Kıyı geometrisi DEĞİŞMEZ; bu bir arazi-kullanım işaretidir.",
    "confidence": "alan konumu güvenli, sınırları taslak"
   }
  },
  {
   "type": "Feature",
   "geometry": {
    "type": "Polygon",
    "coordinates": [
     [
      [
       28.969,
       41.02
      ],
      [
       28.988,
       41.02
      ],
      [
       28.988,
       41.026
      ],
      [
       28.969,
       41.026
      ],
      [
       28.969,
       41.02
      ]
     ]
    ]
   },
   "properties": {
    "layer": "correction_zone",
    "id": "CZ_Galata_Karakoy_dolgu",
    "name": "Galata / Karaköy kıyısı",
    "action": "remove_fill",
    "tier": "Reconstruction",
    "status": "draft",
    "sea_threshold_m": 5.0,
    "measured_shift_m": 34.6,
    "measured_area_ha": 7.4,
    "research_note": "RESEARCH.md §4: Haliç kıyısı bugünkünden içeride.",
    "design_note": "Galata surları 1632'de ayakta ve deniz kapıları kıyıya çok yakındır — dolgu geri alınınca sur-deniz mesafesi daralır.",
    "confidence": "kaba taslak; metrik ofset kaynaklı değil"
   }
  },
  {
   "type": "Feature",
   "geometry": {
    "type": "Polygon",
    "coordinates": [
     [
      [
       28.92,
       40.995
      ],
      [
       28.99,
       40.995
      ],
      [
       28.99,
       41.01
      ],
      [
       28.92,
       41.01
      ],
      [
       28.92,
       40.995
      ]
     ]
    ]
   },
   "properties": {
    "layer": "correction_zone",
    "id": "CZ_Marmara_kiyisi_geneli",
    "name": "Marmara kıyısı (Ahırkapı–Narlıkapı)",
    "action": "remove_fill",
    "tier": "Reconstruction",
    "status": "draft",
    "sea_threshold_m": 5.0,
    "measured_shift_m": 48.6,
    "measured_area_ha": 30.9,
    "research_note": "RESEARCH.md §4: 'Marmara kıyısı bugünkünden içeride'.",
    "design_note": "Sahil yolu (Kennedy Cad.) dolgusu 20. yy'dır; deniz surları 1632'de suya çok yakındır. Kapılar: Ahırkapı, Çatladıkapı, Kumkapı, Langa, Davutpaşa, Samatya, Narlıkapı (Eremya Çelebi).",
    "confidence": "kaba taslak; metrik ofset kaynaklı değil"
   }
  }
 ]
}