{
 "type": "FeatureCollection",
 "name": "landmarks_1632",
 "metadata": {
  "title": "1632 İstanbul landmark kataloğu",
  "status": "TASLAK — konumlar yaklaşık (Faz 1 madde 3'te georeferanslanacak)",
  "two_axes": "'tier' 1632'deki VARLIĞI/DURUMU niteler (RESEARCH.md §3); 'position_confidence' KONUM kesinliğini. İkisi ayrıdır: bir yapının ayakta olduğu belgeli olabilirken koordinatı yaklaşık olabilir.",
  "world_origin": {
   "name": "Galata Kulesi tabani",
   "lon": 28.974017,
   "lat": 41.025637,
   "utm_easting": 665958.1142269672,
   "utm_northing": 4543479.981161056
  },
  "legendary_flight": {
   "measured_distance_m": 3336.2,
   "measured_terrain_galata_m": 52.0,
   "measured_terrain_dogancilar_m": 46.6,
   "legend_figures": [
    {
     "distance_m": 3358,
     "drop_m": 62
    },
    {
     "distance_m": 3400,
     "drop_m": null
    },
    {
     "distance_m": 3558,
     "drop_m": 86
    }
   ],
   "warning": "Bu rakamlar Evliya Celebi'nin metninde METRIK OLARAK GECMEZ; modern ikincil kaynaklarin yorumudur ve birbiriyle celisir (RESEARCH.md Caveats). Oyunda TEK kesin deger sunulmamalidir."
  },
  "absent_in_1632": [
   {
    "id": "LM_Nuruosmaniye",
    "name": "Nuruosmaniye Camii",
    "built": "1748-1755",
    "research_ref": "RESEARCH.md §3 — HENUZ YOK"
   },
   {
    "id": "LM_RevanKosku",
    "name": "Revan Köşkü",
    "built": "1636",
    "research_ref": "RESEARCH.md §3 — Revan seferi (1635) donusunde, 1636 tamam"
   },
   {
    "id": "LM_BagdatKosku",
    "name": "Bağdat Köşkü",
    "built": "1639",
    "research_ref": "RESEARCH.md §3 — '1638'den az sonra, insasi 1639 icinde' (Naima)"
   },
   {
    "id": "LM_BuyukValideHan",
    "name": "Büyük Valide Han",
    "built": "tartışmalı (1640-1651?)",
    "research_ref": "RESEARCH.md Caveats — 'ihtiyatla muhtemelen yok'"
   }
  ],
  "copyright": "Bu derleme bize aittir; konumlar RESEARCH.md ve genel coğrafyadan."
 },
 "features": [
  {
   "type": "Feature",
   "geometry": {
    "type": "Point",
    "coordinates": [
     28.974017,
     41.025637
    ]
   },
   "properties": {
    "layer": "landmark",
    "id": "LM_GalataKulesi",
    "name": "Galata Kulesi",
    "grade": "S",
    "tier": "Documented",
    "position_confidence": "anchor (dunya orijini — dem_fetch.py ile ayni sabit)",
    "state_1632": "Ayakta ama bugunkunden ALCAK ve farkli: 1509 depremi sonrasi onarimli, sivri ahsap/kursun kulahli; tersane ambari ve zindan islevli; yangin gozetleme kulesi DEGIL (o islev 18. yy).",
    "research_ref": "RESEARCH.md §3 Galata; kule yuksekligi notu (1794'te ~1,9 m indirildi)",
    "terrain_elevation_m": 52.0,
    "unity_x": -0.0,
    "unity_z": -0.0
   }
  },
  {
   "type": "Feature",
   "geometry": {
    "type": "Point",
    "coordinates": [
     28.9735,
     41.023
    ]
   },
   "properties": {
    "layer": "landmark",
    "id": "LM_GalataSurlari",
    "name": "Galata surları ve kapıları",
    "grade": "S",
    "tier": "Documented",
    "position_confidence": "approx (~100 m; elle girildi, Faz 1 madde 3'te georeferanslanacak)",
    "state_1632": "Ayakta; Azapkapi, Karakoy/Kule Kapisi vb. Kule etrafinda hendek ve burclar.",
    "research_ref": "RESEARCH.md §3 Galata (Eremya Celebi)",
    "terrain_elevation_m": 13.1,
    "unity_x": -36.8,
    "unity_z": -293.7
   }
  },
  {
   "type": "Feature",
   "geometry": {
    "type": "Point",
    "coordinates": [
     28.961319,
     41.055858
    ]
   },
   "properties": {
    "layer": "landmark",
    "id": "LM_Okmeydani",
    "name": "Okmeydanı",
    "grade": "S",
    "tier": "Documented",
    "position_confidence": "OLCULDU (kendi arazimizde). Onceki deger yesil poligonun agirlik merkeziydi ve YAMACA dusuyordu: 400x400 m icinde 94,1 m kot yayilimi — 845,66 m'lik menzil rekoru orada atilamaz. 2x2 km taranarak en duz nokta bulundu: 700 m doguda, kot 94,5 m, 300x300 m yayilim 10,1 m; 30 derece yonunde 900 m'lik koridorda yalnizca 5,6 m. Nokta mevcut yesil poligonun ICINDEDIR, yani poligon dogru, yalnizca merkezi temsil etmiyordu.",
    "state_1632": "Acik talim alani. II. Bayezid vakfiyesi meydanda YAPI, MEZAR, SU YOLU, BAG ve BAHCE yapilmasini yasaklar — yani meydan bir YOKLUK kaydidir. Okcular (Kemankes) Tekkesi ve MINBERLI NAMAZGAH mevcut; menzil taslari dikili (132 abide tespit edilmis, meydan rekoru 845,66 m). Hezarfen'in talim yaptigi yer.",
    "research_ref": "RESEARCH.md §5.8; ADR 0041",
    "terrain_elevation_m": 94.6,
    "unity_x": -1143.0,
    "unity_z": 3331.0
   }
  },
  {
   "type": "Feature",
   "geometry": {
    "type": "Point",
    "coordinates": [
     28.961319,
     41.055858
    ]
   },
   "properties": {
    "layer": "landmark",
    "id": "LM_OkcularTekkesi",
    "name": "Okçular (Kemankeş) Tekkesi",
    "grade": "A",
    "tier": "Documented",
    "position_confidence": "turetilmis: olculen PLATOYA oturtuldu; tekkenin 1632'deki tam yeri icin olculu koordinat bulunamadi.",
    "state_1632": "Ayakta. 1624-25'te GURCU MEHMED PASA mescidi onartip MINBER ekletti — yani 1632'de mescit yeni onarilmis ve minberlidir. **MINARESIZ**: tekke mescidinin minaresi ancak 1770-71'de eklendi. IV. Murad devrinde meydan seyhi Haci Suleyman padisahin hocasiydi.",
    "research_ref": "RESEARCH.md §5.8; ADR 0041",
    "terrain_elevation_m": 94.6,
    "unity_x": -1143.0,
    "unity_z": 3331.0
   }
  },
  {
   "type": "Feature",
   "geometry": {
    "type": "Point",
    "coordinates": [
     28.96205,
     41.05642
    ]
   },
   "properties": {
    "layer": "landmark",
    "id": "LM_OkmeydaniNamazgah",
    "name": "Okmeydanı namazgâhı (minberli)",
    "grade": "A",
    "tier": "Documented",
    "position_confidence": "turetilmis: platoda, tekkenin ~80 m kuzeydogusunda; ikisinin arasindaki mesafe BELGELI DEGILDIR.",
    "state_1632": "Ayakta ve minberli. Acik hava namazgahi; meydanin vakif duzeninin parcasi.",
    "research_ref": "RESEARCH.md §5.8; ADR 0041",
    "terrain_elevation_m": 98.3,
    "unity_x": -1083.0,
    "unity_z": 3394.8
   }
  },
  {
   "type": "Feature",
   "geometry": {
    "type": "Point",
    "coordinates": [
     28.98807,
     41.014361
    ]
   },
   "properties": {
    "layer": "landmark",
    "id": "LM_IncliKosk",
    "name": "İncili Köşk (Sinan Paşa Köşkü)",
    "grade": "S",
    "tier": "Documented",
    "position_confidence": "turetilmis: kaynak konumu 'Sarayburnu'ndan kiyi boyunca ~300 m, Soter Filantropos kalintisi ile Ahirkapi arasi' diye verir; nokta KENDI 1632 kiyi cizgimizde o mesafede olculdu (kot 0,1 m). ONCEKI DEGER 156 m YANLISTI (28,9866/41,0135): denizden 125 m iceride ve 14,7 m yukarida kaliyordu, oysa kosk denize TASAR.",
    "state_1632": "AYAKTA, 41 yasinda. 998/1590'da baslandi, 999/1590-91'de tamamlandi; bani Koca Sinan Pasa, mimar DAVUD AGA. Marmara tarafindaki Bizans DENIZ SURU uzerinde, kesme tas kemerli alt yapiya oturur. Evliya'ya gore IV. Murad Hezarfen'in ucusunu BURADAN izledi; Lagari de onune indi (anlati T3, yapinin kendisi T1). 1632'DE YOK: 1871-72 yikimi ve sahil demiryolu.",
    "research_ref": "RESEARCH.md §5.6; ADR 0039",
    "terrain_elevation_m": 0.1,
    "unity_x": 1210.0,
    "unity_z": -1225.0
   }
  },
  {
   "type": "Feature",
   "geometry": {
    "type": "Point",
    "coordinates": [
     29.0041,
     41.0211
    ]
   },
   "properties": {
    "layer": "landmark",
    "id": "LM_KizKulesi",
    "name": "Kız Kulesi",
    "grade": "S",
    "tier": "Documented",
    "position_confidence": "approx (~100 m; elle girildi, Faz 1 madde 3'te georeferanslanacak)",
    "state_1632": "Ayakta, kayalik adacik uzerinde. Donem siluetiyle modellenecek. Adacik DEM'de yok (30 m cozunurluk) — Faz 3'te elle eklenecek.",
    "research_ref": "RESEARCH.md §3 (Kiz Kulesi, Yedikule, Hisarlar ayakta)",
    "terrain_elevation_m": -12.0,
    "unity_x": 2540.8,
    "unity_z": -446.0
   }
  },
  {
   "type": "Feature",
   "geometry": {
    "type": "Point",
    "coordinates": [
     29.016067,
     41.026798
    ]
   },
   "properties": {
    "layer": "landmark",
    "id": "LM_UskudarMihrimah",
    "name": "Üsküdar Mihrimah (İskele) Camii",
    "grade": "S",
    "tier": "Documented",
    "position_confidence": "olculu (Kultur Envanteri kaydindaki koordinat). ONCEKI DEGER ~164 m YANLISTI (29,0148/41,0257, elle girilmisti). Hatayi KULLIYENIN KENDISI ele verdi: medrese ile sibyan mektebi olculu koordinatlariyla eklenince, belgeli goreli konumlar ('medrese caminin dogusunda', 'mektep kible tarafinda') tutmadi.",
    "state_1632": "Ayakta. Kitabe 954/1548, Mimar Sinan. (Onceki kayit \"1560'lar\" diyordu; o Edirnekapi Mihrimah'idir, 1566.) Kubbe dis cap 11,40 m, kilit 24,20 m; UC yarim kubbeli planin Istanbul'daki ilk ve tek ornegi. Iskele ve kayiklar. 1632'de meydana TEK BASINA hakim: Yeni Valide Camii (1710) ve III. Ahmed Meydan Cesmesi (1728) YOK.",
    "research_ref": "RESEARCH.md §5.4; ADR 0036",
    "terrain_elevation_m": 14.3,
    "unity_x": 3532.5,
    "unity_z": 209.8
   }
  },
  {
   "type": "Feature",
   "geometry": {
    "type": "Point",
    "coordinates": [
     29.012677,
     41.018907
    ]
   },
   "properties": {
    "layer": "landmark",
    "id": "LM_Dogancilar",
    "name": "Doğancılar Meydanı",
    "grade": "S",
    "tier": "Legend",
    "position_confidence": "olculu (Kultur Envanteri kaydindaki koordinat). ONCEKI DEGER 771 m YANLISTI (29,0181/41,0245, elle girilmisti) ve Galata'ya 3709 m veriyordu; hicbir modern rakamla uyusmuyordu.",
    "state_1632": "Hezarfen'in INIS NOKTASI. Tek kaynak (Evliya) — T3. Meydan 1632'de faal; adi imparatorluk DOGANCI ocagindan gelir. Cevrede 1632'de ayakta: Cakircibasi Hasan Pasa (Dogancilar) Camii ve ~400 m kuzeydogusunda Aziz Mahmud Hudayi tekke-camii. Mesafe/kot rakamlari modern yorumculara ait ve celiskili.",
    "research_ref": "RESEARCH.md §5.5; Caveats (3358/3400/3558 m celiskisi)",
    "terrain_elevation_m": 46.6,
    "unity_x": 3267.6,
    "unity_z": -672.9
   }
  },
  {
   "type": "Feature",
   "geometry": {
    "type": "Point",
    "coordinates": [
     29.016325,
     41.027229
    ]
   },
   "properties": {
    "layer": "landmark",
    "id": "LM_MihrimahMedrese",
    "name": "Üsküdar Mihrimah Sultan Medresesi",
    "grade": "A",
    "tier": "Documented",
    "position_confidence": "olculu (Kultur Envanteri kaydindaki koordinat).",
    "state_1632": "Ayakta ve faal; 1548, Mimar Sinan, caminin DOGUSUNDA. Kubbeli bir dershane ve ON ALTI ogrenci hucresi (TDV; IBB Kulturel Miras). 1632'de 84 yasinda. 1632'DE YOK: 1961 onarimi — o tarihte saglik ocagina cevrildi ve ic ozelliklerini yitirdi.",
    "research_ref": "RESEARCH.md §5.4; ADR 0038",
    "terrain_elevation_m": 15.3,
    "unity_x": 3553.0,
    "unity_z": 258.1
   }
  },
  {
   "type": "Feature",
   "geometry": {
    "type": "Point",
    "coordinates": [
     29.016231,
     41.026531
    ]
   },
   "properties": {
    "layer": "landmark",
    "id": "LM_MihrimahMektebi",
    "name": "Üsküdar Mihrimah Sultan Sıbyan Mektebi",
    "grade": "A",
    "tier": "Documented",
    "position_confidence": "olculu (Kultur Envanteri kaydindaki koordinat).",
    "state_1632": "Ayakta ve faal; yapim 1547-48, Mimar Sinan. Caminin KIBLE tarafinda, aradan kucuk bir yol gecer. Kubbeli dershane + kubbeli ACIK EYVAN (kislik ve yazlik bolumler); dikdortgen planli. YAMACTA oldugu icin altina DUKKAN eklenmistir. 1632'DE YOK: bugunku cocuk kutuphanesi islevi.",
    "research_ref": "RESEARCH.md §5.4; ADR 0038",
    "terrain_elevation_m": 17.0,
    "unity_x": 3546.9,
    "unity_z": 180.4
   }
  },
  {
   "type": "Feature",
   "geometry": {
    "type": "Point",
    "coordinates": [
     29.012054,
     41.019186
    ]
   },
   "properties": {
    "layer": "landmark",
    "id": "LM_DogancilarCamii",
    "name": "Çakırcıbaşı Hasan Paşa (Doğancılar) Camii",
    "grade": "S",
    "tier": "Documented",
    "position_confidence": "olculu (Kultur Envanteri kaydindaki koordinat).",
    "state_1632": "Ayakta. 1548'de Mimar Sinan yapti (bani Cakircibasi Hasan Pasa); 1580'lerde harap dusunce Haci Ahmed Pasa yeniden yaptirdi ve avluya kendi turbesini ekledi — 1632'de gorulen 1580'ler yapisidir. Duvarlar KAGIR, cati AHSAP, TEK minare. 1857 duzenlemesi ve 1858-59 Sayeste Kadinefendi onarimi 1632'de YOK.",
    "research_ref": "RESEARCH.md §5.5; ADR 0037",
    "terrain_elevation_m": 45.7,
    "unity_x": 3214.5,
    "unity_z": -643.1
   }
  },
  {
   "type": "Feature",
   "geometry": {
    "type": "Point",
    "coordinates": [
     29.014431,
     41.022267
    ]
   },
   "properties": {
    "layer": "landmark",
    "id": "LM_HudayiTekkesi",
    "name": "Aziz Mahmud Hüdâyî tekke-camii",
    "grade": "S",
    "tier": "Documented",
    "position_confidence": "olculu (Kultur Envanteri kaydindaki koordinat).",
    "state_1632": "Ayakta. Hudayi arsayi 1589'da aldi; ilk tekke 1003/1595'te tamamlandi, 1007/1598-99'da minber eklenerek camiye cevrildi. 1632'de 37 yasinda ve IV. Murad doneminin en etkili seyh tekkesi. Ahsap catili. 1850 yangini ve 1272/1855-56 yeniden insasi 1632'de YOK.",
    "research_ref": "RESEARCH.md §5.5; ADR 0037",
    "terrain_elevation_m": 28.4,
    "unity_x": 3406.5,
    "unity_z": -296.5
   }
  },
  {
   "type": "Feature",
   "geometry": {
    "type": "Point",
    "coordinates": [
     29.01438,
     41.02218
    ]
   },
   "properties": {
    "layer": "landmark",
    "id": "LM_HudayiTurbesi",
    "name": "Aziz Mahmud Hüdâyî türbesi (açık türbe)",
    "grade": "A",
    "tier": "Documented",
    "position_confidence": "olculu (Kultur Envanteri kaydindaki koordinat).",
    "state_1632": "AYAKTA ve YENI. Hudayi Safer 1038'de (Ekim 1628) oldu; turbe ayni hicri yil icinde, 1038'de (1628-29) yapildi — 1632'de yapi UC-DORT yasindadir. ACIK (baldaken) turbe: TDV 1850 yangini oncesi ayakta kalan yapiyi oyle tanimlar; bugunku kubbe DORT MERMER SUTUN uzerine oturur. 1632'DE YOK: bugunku kapali kagir kabuk, 7,40x8,80 m plan, on uc dilimli kubbe ve yedi pencere — 1272/1855-56 yeniden insasi.",
    "research_ref": "RESEARCH.md §5.5; ADR 0037",
    "terrain_elevation_m": 29.9,
    "unity_x": 3402.4,
    "unity_z": -306.2
   }
  },
  {
   "type": "Feature",
   "geometry": {
    "type": "Point",
    "coordinates": [
     28.983259,
     41.012379
    ]
   },
   "properties": {
    "layer": "landmark",
    "id": "LM_TopkapiAdaletKulesi",
    "name": "Topkapı — Adalet Kulesi",
    "grade": "S",
    "tier": "Documented",
    "position_confidence": "olculu (Kultur Envanteri kaydindaki koordinat).",
    "state_1632": "AYAKTA ama bugunkunden ALCAK. Fatih'in duzeninde tasarlandi; KANUNI 1527-29'da tas bolumu ekletti ve Kubbealti'na bakan hunkar penceresi acildi. 1632'deki bicim: UC tas kat + AHSAP ust kat + KURSUN PIRAMIDAL kulah. 1632'DE YOK: II. Mahmud'un (1819-20) ekledigi dorduncu tas kat, ahsap seyir bolumu ve yukseltilmis kulah; Abdulaziz'in bugunku SIVRI kulahi. Galata Kulesi'ndekiyle ayni hata ailesi.",
    "research_ref": "RESEARCH.md §5.7; ADR 0040",
    "terrain_elevation_m": 53.7,
    "unity_x": 810.5,
    "unity_z": -1454.3
   }
  },
  {
   "type": "Feature",
   "geometry": {
    "type": "Point",
    "coordinates": [
     28.983004,
     41.011307
    ]
   },
   "properties": {
    "layer": "landmark",
    "id": "LM_TopkapiBabusselam",
    "name": "Topkapı — Bâbüsselâm (Orta Kapı)",
    "grade": "S",
    "tier": "Documented",
    "position_confidence": "olculu (Kultur Envanteri kaydindaki koordinat). (onundeki binek tasi kaydi).",
    "state_1632": "AYAKTA. CIFTE KONIK KULAHLI kapi; ikinci avluya (Divan Meydani) acilir. Kuleler 1632'de vardir — tartisma yalnizca kimin ekledigidir (Necipoglu Fatih, yaygin gorus Kanuni) ve iki ihtimal de 1632'den oncedir.",
    "research_ref": "RESEARCH.md §5.7; ADR 0040",
    "terrain_elevation_m": 53.1,
    "unity_x": 791.7,
    "unity_z": -1573.8
   }
  },
  {
   "type": "Feature",
   "geometry": {
    "type": "Point",
    "coordinates": [
     28.9834,
     41.0115
    ]
   },
   "properties": {
    "layer": "landmark",
    "id": "LM_TopkapiSiluet",
    "name": "Topkapı Sarayı (siluet)",
    "grade": "S",
    "tier": "Documented",
    "position_confidence": "approx (~100 m; elle girildi, Faz 1 madde 3'te georeferanslanacak)",
    "state_1632": "Ayakta. Revan (1636) ve Bagdat (1639) koskleri HENUZ YOK; Alay Koksu var. Sofa-i Humayun genislemesi tamamlanmamis.",
    "research_ref": "RESEARCH.md §3 Saraylar ve koskler",
    "terrain_elevation_m": 53.8,
    "unity_x": 824.6,
    "unity_z": -1551.6
   }
  },
  {
   "type": "Feature",
   "geometry": {
    "type": "Point",
    "coordinates": [
     28.980054,
     41.008524
    ]
   },
   "properties": {
    "layer": "landmark",
    "id": "LM_Ayasofya",
    "name": "Ayasofya",
    "grade": "A",
    "tier": "Documented",
    "position_confidence": "turetilmis: nokta yapinin ANA KUBBE MERKEZIDIR (prefabin pivotu da orasi). Onceki elle girilmis deger 15 m otedeydi — hata degil ama daha iyi bir sayi vardi. Yapinin ekseni de olculdu: apsis 123,5 derece; izgara kiblesi 150,40, yani AYASOFYA KIBLEYE DONUK DEGILDIR ve katalog face_deg=303,5 bildirir.",
    "state_1632": "Ayakta, cami. DORT minarenin dordu de yerinde (batidaki ikizler III. Murad'in ilk yillarinda tamam). Fatih'in YARIM KUBBE UZERINDEKI AHSAP minaresi 1574'te SOKULDU. Vaftizhane ayakta ama YAGHANEDIR: I. Mustafa (1639) ve Sultan Ibrahim (1648) oraya sonra gomulur. 1632'DE YOK: I. Mahmud'un sadirvani, kutuphanesi, sibyan mektebi ve imareti (1739-40); III. Ahmed'in hunkar mahfili (1728); Fossati'nin (1847-49) sivasi ve KIRMIZI YATAY SERITLERI — bugunku okra renk ondan da sonradir.",
    "research_ref": "RESEARCH.md §5.11, ADR 0045 (TDV; Muller-Wiener; Grelot)",
    "terrain_elevation_m": 47.8,
    "unity_x": 550.7,
    "unity_z": -1888.4
   }
  },
  {
   "type": "Feature",
   "geometry": {
    "type": "Point",
    "coordinates": [
     28.9639,
     41.0165
    ]
   },
   "properties": {
    "layer": "landmark",
    "id": "LM_Suleymaniye",
    "name": "Süleymaniye Külliyesi",
    "grade": "A",
    "tier": "Documented",
    "position_confidence": "approx (~100 m; elle girildi, Faz 1 madde 3'te georeferanslanacak)",
    "state_1632": "Ayakta, tam faal. 3. tepe.",
    "research_ref": "RESEARCH.md §3 (TDV; Muller-Wiener)",
    "terrain_elevation_m": 59.2,
    "unity_x": -827.8,
    "unity_z": -1033.6
   }
  },
  {
   "type": "Feature",
   "geometry": {
    "type": "Point",
    "coordinates": [
     28.976884,
     41.005254
    ]
   },
   "properties": {
    "layer": "landmark",
    "id": "LM_Sultanahmet",
    "name": "Sultanahmet Camii",
    "grade": "A",
    "tier": "Documented",
    "position_confidence": "turetilmis: nokta ANA KUBBE MERKEZIDIR (prefabin pivotu da orasi); onceki elle girilmis deger 17,7 m otedeydi. Yapinin ekseni de olculdu — plandan YEDI bagimsiz yolla 133,6 derece; bu olcum 1632 kiblesinin (133,7) cikis noktasidir, ADR 0046.",
    "state_1632": "Ayakta ve YENI: 1616'da ibadete acildi, yani 1632'de ON ALTI yasinda. IV. Murad'in Istanbul'unda sehrin en taninan silueti daha bir kusak eskimemistir. 1632'DE TAMAM: cami (1616), arasta + hamam (1617), SULTAN AHMED TURBESI (1619, II. Osman tamamlatti), medrese-darussifa-imaret (1620) — kulliye butunuyle ayakta. 1632'DE YOK: III. Selim'in su haznesi (1802 sonrasi). Bu yapida 'sonradan eklendi' listesi KISADIR.",
    "research_ref": "RESEARCH.md §5.13, ADR 0047 (TDV)",
    "terrain_elevation_m": 46.8,
    "unity_x": 292.3,
    "unity_z": -2257.5
   }
  },
  {
   "type": "Feature",
   "geometry": {
    "type": "Point",
    "coordinates": [
     28.972235,
     41.016879
    ]
   },
   "properties": {
    "layer": "landmark",
    "id": "LM_YeniCamiHarabe",
    "name": "Yeni Cami harabesi (\"Zulmiyye\")",
    "grade": "A",
    "tier": "Documented",
    "position_confidence": "olculu (Kultur Envanteri kaydindaki koordinat). ONCEKI DEGER ~148 m yanlisti (28,9705/41,0166, elle girilmisti) ve yapiyi YAMACA koyuyordu: kot 12,1 m. Oysa Yeni Cami Halic kiyisinda, BATAKLIK zemine kuruldu ve ozel temel isi gerekti.",
    "state_1632": "YARIM/TERK. 1603'te ilk pencere taklarina kadar yukselmis, insaat durmus. IV. Murad 1637'de surdurmeyi dusunup vazgecti. Halk 'Zulmiye' dedi; cevresi sikisik gayrimuslim mahallesi ve mezbelelik. 1632'de gorkemli cami DEGIL, denize yakin kagir bir HARABE.",
    "research_ref": "RESEARCH.md §3 'Yeni Cami (kritik detay)' — TDV, Thys-Senocak",
    "terrain_elevation_m": 10.9,
    "unity_x": -127.9,
    "unity_z": -975.7
   }
  },
  {
   "type": "Feature",
   "geometry": {
    "type": "Point",
    "coordinates": [
     28.9497,
     41.0192
    ]
   },
   "properties": {
    "layer": "landmark",
    "id": "LM_FatihCamii",
    "name": "Fatih Camii (1766 öncesi özgün şema)",
    "grade": "A",
    "tier": "Documented",
    "position_confidence": "approx (~100 m; elle girildi, Faz 1 madde 3'te georeferanslanacak)",
    "state_1632": "Ayakta, OZGUN plan: mihrap yonunde tek yarim kubbeli, disardan Edirne Uc Serefeli'ye benzer erken klasik sema. Bugunku barok yapi 1767-71'dir. SALT gorselleri CC BY-NC-ND — YALNIZCA BAKILIR, kopyalanmaz.",
    "research_ref": "RESEARCH.md §3 'Fatih Camii ozgun plani'",
    "terrain_elevation_m": 68.4,
    "unity_x": -2028.5,
    "unity_z": -760.6
   }
  },
  {
   "type": "Feature",
   "geometry": {
    "type": "Point",
    "coordinates": [
     28.9647,
     41.0104
    ]
   },
   "properties": {
    "layer": "landmark",
    "id": "LM_Beyazit",
    "name": "Beyazıt Camii",
    "grade": "A",
    "tier": "Documented",
    "position_confidence": "approx (~100 m; elle girildi, Faz 1 madde 3'te georeferanslanacak)",
    "state_1632": "Ayakta (1501-1506).",
    "research_ref": "RESEARCH.md §3 (TDV)",
    "terrain_elevation_m": 60.0,
    "unity_x": -745.3,
    "unity_z": -1709.3
   }
  },
  {
   "type": "Feature",
   "geometry": {
    "type": "Point",
    "coordinates": [
     28.9575,
     41.0128
    ]
   },
   "properties": {
    "layer": "landmark",
    "id": "LM_Sehzade",
    "name": "Şehzade Camii",
    "grade": "A",
    "tier": "Documented",
    "position_confidence": "approx (~100 m; elle girildi, Faz 1 madde 3'te georeferanslanacak)",
    "state_1632": "Ayakta (1543-1548).",
    "research_ref": "RESEARCH.md §3 (TDV)",
    "terrain_elevation_m": 49.8,
    "unity_x": -1356.7,
    "unity_z": -1456.4
   }
  },
  {
   "type": "Feature",
   "geometry": {
    "type": "Point",
    "coordinates": [
     28.951386,
     41.026531
    ]
   },
   "properties": {
    "layer": "landmark",
    "id": "LM_YavuzSelim",
    "name": "Yavuz Selim Camii",
    "grade": "A",
    "tier": "Documented",
    "position_confidence": "olculu (Kultur Envanteri kaydindaki koordinat). ONCEKI DEGER ~150 m yanlisti: cami BESINCI TEPEYI taclandirir ama nokta yerel zirvenin 27,7 m ALTINDA kaliyordu.",
    "state_1632": "Ayakta (1522). 5. tepe.",
    "research_ref": "RESEARCH.md §3 (TDV)",
    "terrain_elevation_m": 63.8,
    "unity_x": -1905.0,
    "unity_z": 56.5
   }
  },
  {
   "type": "Feature",
   "geometry": {
    "type": "Point",
    "coordinates": [
     28.9683,
     41.0178
    ]
   },
   "properties": {
    "layer": "landmark",
    "id": "LM_RustemPasa",
    "name": "Rüstem Paşa Camii",
    "grade": "A",
    "tier": "Documented",
    "position_confidence": "approx (~100 m; elle girildi, Faz 1 madde 3'te georeferanslanacak)",
    "state_1632": "Ayakta (1563). Tahtakale.",
    "research_ref": "RESEARCH.md §3 (TDV)",
    "terrain_elevation_m": 11.7,
    "unity_x": -461.0,
    "unity_z": -880.9
   }
  },
  {
   "type": "Feature",
   "geometry": {
    "type": "Point",
    "coordinates": [
     28.964,
     41.011
    ]
   },
   "properties": {
    "layer": "landmark",
    "id": "LM_EskiSaray",
    "name": "Eski Saray (Beyazıt)",
    "grade": "A",
    "tier": "Documented",
    "position_confidence": "approx (~100 m; elle girildi, Faz 1 madde 3'te georeferanslanacak)",
    "state_1632": "Ayakta, gozden dusmus cariye/valide ikametgahi.",
    "research_ref": "RESEARCH.md §3 (Muller-Wiener)",
    "terrain_elevation_m": 65.1,
    "unity_x": -805.6,
    "unity_z": -1644.0
   }
  },
  {
   "type": "Feature",
   "geometry": {
    "type": "Point",
    "coordinates": [
     28.9714,
     41.0231
    ]
   },
   "properties": {
    "layer": "landmark",
    "id": "LM_ArapCamii",
    "name": "Arap Camii (Galata)",
    "grade": "A",
    "tier": "Documented",
    "position_confidence": "approx (~100 m; elle girildi, Faz 1 madde 3'te georeferanslanacak)",
    "state_1632": "Ayakta.",
    "research_ref": "RESEARCH.md §3 Galata (TDV)",
    "terrain_elevation_m": 9.7,
    "unity_x": -213.7,
    "unity_z": -286.6
   }
  },
  {
   "type": "Feature",
   "geometry": {
    "type": "Point",
    "coordinates": [
     28.9822,
     41.027
    ]
   },
   "properties": {
    "layer": "landmark",
    "id": "LM_Tophane",
    "name": "Tophane",
    "grade": "A",
    "tier": "Documented",
    "position_confidence": "approx (~100 m; elle girildi, Faz 1 madde 3'te georeferanslanacak)",
    "state_1632": "Ayakta, faal top dokumu.",
    "research_ref": "RESEARCH.md §3 Galata (Evliya)",
    "terrain_elevation_m": 9.0,
    "unity_x": 684.6,
    "unity_z": 166.9
   }
  },
  {
   "type": "Feature",
   "geometry": {
    "type": "Point",
    "coordinates": [
     28.965299,
     41.030839
    ]
   },
   "properties": {
    "layer": "landmark",
    "id": "LM_Tersane",
    "name": "Kasımpaşa Tersanesi",
    "grade": "A",
    "tier": "Documented",
    "position_confidence": "turetilmis: TERSANE bir kiyi tesisidir ve onceki nokta denizden 255 m iceride, 14,3 m yukarida kaliyordu. Nokta KENDI 1632 kiyi cizgimizde olculdu (kot 1,5 m); kayma 247 m. Tersane bir nokta degil bir HAT olduğu icin bu konum onun kiyi ucudur.",
    "state_1632": "Ayakta, faal.",
    "research_ref": "RESEARCH.md §3 Galata (Evliya)",
    "terrain_elevation_m": 1.4,
    "unity_x": -746.0,
    "unity_z": 561.0
   }
  },
  {
   "type": "Feature",
   "geometry": {
    "type": "Point",
    "coordinates": [
     29.014349,
     41.027211
    ]
   },
   "properties": {
    "layer": "landmark",
    "id": "LM_UskudarIskele",
    "name": "Üsküdar İskelesi",
    "grade": "S",
    "tier": "Documented",
    "position_confidence": "turetilmis: Uskudar Mihrimah'a EN YAKIN kiyi noktasi kendi 1632 kiyi cizgimizde bulundu (134 m) ve oradan ~20 m denize alindi. Iskelenin kendi olculu koordinati yok — ama yeri camiden turer, cunku CAMININ ADI iskeleden gelir.",
    "state_1632": "Ayakta ve **AHSAP**. Uskudar Mihrimah Sultan Camii'nin yaygin adi **'ISKELE CAMII'**dir ve sebebi yani basindaki iskeledir; yani iskele camiden bagimsiz bir ayrinti degil, CAMININ ADININ KAYNAGI. Kagir rihtimlar 19. yuzyildir.",
    "research_ref": "RESEARCH.md §5.20, ADR 0055",
    "terrain_elevation_m": -5.4,
    "unity_x": 3386.9,
    "unity_z": 252.3
   }
  },
  {
   "type": "Feature",
   "geometry": {
    "type": "Point",
    "coordinates": [
     28.98139,
     41.01175
    ]
   },
   "properties": {
    "layer": "landmark",
    "id": "LM_AlayKosku",
    "name": "Alay Köşkü",
    "grade": "S",
    "tier": "Documented",
    "position_confidence": "approx (~100 m; elle girildi, Faz 1 madde 3'te georeferanslanacak)",
    "state_1632": "Ayakta ve **AHSAP**. Sur-i Sultani uzerinde, sokaga tasan seyir kosku; padisah devlet ricalinin ALAYLARINI buradan izlerdi. **BUGUNKU KAGIR KOSK 1810 ya da 1819-20**, II. Mahmud'undur — ve o yapi **DAHA YUKSEK** bir koskun/kulenin yerine gecti. Yani 1632 yapisi bugunkunden ALCAK DEGIL, YUKSEKTIR: Galata Kulesi ve Adalet Kulesi'nin TERSI. 1632'DE YOK: 1855 Telgrafhane-i Amire.",
    "research_ref": "RESEARCH.md §5.20, ADR 0055",
    "terrain_elevation_m": 36.8,
    "unity_x": 654.9,
    "unity_z": -1527.7
   }
  },
  {
   "type": "Feature",
   "geometry": {
    "type": "Point",
    "coordinates": [
     28.979715,
     41.007925
    ]
   },
   "properties": {
    "layer": "landmark",
    "id": "LM_TurbeSelimII",
    "name": "II. Selim Türbesi",
    "grade": "A",
    "tier": "Documented",
    "position_confidence": "olculu: harita izinin merkezi.",
    "state_1632": "Ayakta, 55 yasinda. **1577, MIMAR SINAN.** Plan KARE, disten koseleri PAHLI; ici sekizgen galerili. Sinan burada da Kanuni turbesindeki gibi CIFT KABUKLU ortu kullandi.",
    "research_ref": "RESEARCH.md §5.19, ADR 0054",
    "terrain_elevation_m": 42.3,
    "unity_x": 523.7,
    "unity_z": -1955.5
   }
  },
  {
   "type": "Feature",
   "geometry": {
    "type": "Point",
    "coordinates": [
     28.979447,
     41.007905
    ]
   },
   "properties": {
    "layer": "landmark",
    "id": "LM_TurbeMuradIII",
    "name": "III. Murad Türbesi",
    "grade": "A",
    "tier": "Documented",
    "position_confidence": "olculu: harita izinin merkezi.",
    "state_1632": "Ayakta, 33 yasinda. **1599, DAVUD AGA** ve yardimcisi Dalgic Ahmed Aga. Plan ALTIGEN, cift kubbeli, DISTAN MERMER kapli, onunde REVAKLI bolum — Osmanli'nin en buyuk turbelerinden. III. Murad 1595'te oldu; turbe II. Selim ile Sehzadeler turbeleri arasindadir.",
    "research_ref": "RESEARCH.md §5.19, ADR 0054",
    "terrain_elevation_m": 40.1,
    "unity_x": 501.2,
    "unity_z": -1958.3
   }
  },
  {
   "type": "Feature",
   "geometry": {
    "type": "Point",
    "coordinates": [
     28.979903,
     41.007775
    ]
   },
   "properties": {
    "layer": "landmark",
    "id": "LM_TurbeMehmedIII",
    "name": "III. Mehmed Türbesi",
    "grade": "A",
    "tier": "Documented",
    "position_confidence": "olculu: harita izinin merkezi.",
    "state_1632": "Ayakta, 24 yasinda. **1604-1608**: mimarbasi DALGIC AHMED AGA basladi, SEDEFKAR MEHMED AGA (Sultanahmet'in mimari) tamamladi. Plan SEKIZGEN, cift kubbeli.",
    "research_ref": "RESEARCH.md §5.19, ADR 0054",
    "terrain_elevation_m": 41.3,
    "unity_x": 539.8,
    "unity_z": -1971.8
   }
  },
  {
   "type": "Feature",
   "geometry": {
    "type": "Point",
    "coordinates": [
     28.976985,
     41.006789
    ]
   },
   "properties": {
    "layer": "landmark",
    "id": "LM_TurbeSultanAhmed",
    "name": "Sultan Ahmed Türbesi",
    "grade": "A",
    "tier": "Documented",
    "position_confidence": "olculu: harita izinin merkezi.",
    "state_1632": "Ayakta, 13 yasinda. **1619**; I. Ahmed 1617'de oldu ve turbeyi oglu II. OSMAN tamamlatti. Yatanlarin arasinda II. Osman'in kendisi de vardir: 1622'de Yedikule'de oldurulup buraya gomuldu — oyunun yilindan ON YIL once ve tahttaki IV. Murad onun kardesidir.",
    "research_ref": "RESEARCH.md §5.19, ADR 0054",
    "terrain_elevation_m": 39.8,
    "unity_x": 297.0,
    "unity_z": -2086.8
   }
  },
  {
   "type": "Feature",
   "geometry": {
    "type": "Point",
    "coordinates": [
     28.968509,
     41.010665
    ]
   },
   "properties": {
    "layer": "landmark",
    "id": "LM_CevahirBedesteni",
    "name": "Cevahir (İç) Bedesteni",
    "grade": "A",
    "tier": "Documented",
    "position_confidence": "olculu: haritada 'Ic Bedesten' izinin merkezi.",
    "state_1632": "Ayakta. Fatih vakfi (~1461). **1632'de KAPALICARSI BUGUNKU DEGILDIR**: kagir tonozlu sokaklar agi sonradir (1701 yangini ve 1894 depremi onarimlari); 17. yuzyilda bedestenlerin arasi AHSAP ortuluydu. Ustelik 1618 YANGINI 1632'den yalnizca 14 yil once — carsi o yil YAKIN ZAMANDA YENIDEN KURULMUS bir yer.",
    "research_ref": "RESEARCH.md §5.18, ADR 0053",
    "terrain_elevation_m": 49.9,
    "unity_x": -425.6,
    "unity_z": -1672.6
   }
  },
  {
   "type": "Feature",
   "geometry": {
    "type": "Point",
    "coordinates": [
     28.969606,
     41.010387
    ]
   },
   "properties": {
    "layer": "landmark",
    "id": "LM_SandalBedesteni",
    "name": "Sandal Bedesteni",
    "grade": "A",
    "tier": "Documented",
    "position_confidence": "olculu: haritada 'Sandal Bedesten' izinin merkezi. Cevahir'in ~95 m dogusunda.",
    "state_1632": "Ayakta. Fatih donemine tarihlenir (Edirne ve Bursa bedestenlerine benzerliginden).",
    "research_ref": "RESEARCH.md §5.18, ADR 0053",
    "terrain_elevation_m": 50.3,
    "unity_x": -332.6,
    "unity_z": -1701.4
   }
  },
  {
   "type": "Feature",
   "geometry": {
    "type": "Point",
    "coordinates": [
     28.923758,
     40.993565
    ]
   },
   "properties": {
    "layer": "landmark",
    "id": "LM_Yedikule",
    "name": "Yedikule",
    "grade": "A",
    "tier": "Documented",
    "position_confidence": "olculu (Kultur Envanteri kaydindaki koordinat). ONCEKI DEGER ~160 m yanlisti; hisar denizden 520 m iceride kaliyordu.",
    "state_1632": "Ayakta.",
    "research_ref": "RESEARCH.md §3",
    "terrain_elevation_m": 20.0,
    "unity_x": -4147.1,
    "unity_z": -3655.0
   }
  }
 ]
}